CELTEE 1                
1 41850U 16067C   18065.20831460 -.00000237  00000-0 -15380-4 0  9997
2 41850  97.9275 152.0646 0009651 139.3495 220.8448 14.96757123 71694
OPTICUBE 04             
1 41851U 16067D   18065.23103481  .00000049  00000-0  95945-5 0  9991
2 41851  97.9262 152.0283 0009775 142.6618 217.5284 14.96624370 71697
AEROCUBE 8D             
1 41852U 16067E   18065.18802944  .00000766  00000-0  72865-4 0  9997
2 41852  97.9285 151.8412 0010802 141.1510 219.0489 14.96425327 71675
AEROCUBE 8C             
1 41853U 16067F   18065.19970561  .00000260  00000-0  28243-4 0  9990
2 41853  97.9286 151.8230 0011005 142.0709 218.1289 14.96391548 71676
PROMETHEUS 2-1          
1 41854U 16067G   18065.21212552 -.00000143  00000-0 -72821-5 0  9997
2 41854  97.9289 151.8230 0011191 143.0848 217.1145 14.96456510 71672
PROMETHEUS 2-3          
1 41855U 16067H   18065.21458096 -.00000150  00000-0 -78916-5 0  9992
2 41855  97.9289 151.8276 0011346 143.8028 216.3963 14.96453120 71676
ITF-2                   
1 41932U 98067KU  18064.69823389  .00022175  00000-0  18402-3 0  9991
2 41932  51.6371 151.6427 0002815 158.8009 201.3105 15.70113832 64471
WASEDA-SAT3             
1 41933U 98067KV  18064.66740421  .00029236  00000-0  21074-3 0  9998
2 41933  51.6342 148.3429 0002056 161.3386 198.7688 15.73300059 64511
AOBA-VELOX 3            
1 41935U 98067KX  18064.77807178  .00026701  00000-0  20282-3 0  9999
2 41935  51.6355 149.1428 0001890 161.9496 198.1570 15.72116059 64617
INS-1B                  
1 41954U 17008G   18064.89615887  .00001127  00000-0  51385-4 0  9997
2 41954  97.4587 129.6819 0009435   6.1054 354.0296 15.22697851 58286
BGUSAT                  
1 41999U 17008BD  18064.90483628  .00001953  00000-0  83316-4 0  9990
2 41999  97.4628 130.4546 0008955  25.3066 334.8608 15.24100047 57695
DIDO-2                  
1 42000U 17008BE  18065.11598971  .00000813  00000-0  37618-4 0  9994
2 42000  97.4606 130.2719 0009236  24.3922 335.7750 15.22967628 57713
PEASSS                  
1 42015U 17008BV  18064.88499221  .00001089  00000-0  48302-4 0  9999
2 42015  97.4601 130.3809 0007367  35.2564 324.9159 15.23723786 58182
AL-FARABI 1             
1 42016U 17008BW  18065.16586972  .00001348  00000-0  58482-4 0  9990
2 42016  97.4607 130.7889 0007216  35.0404 325.1307 15.24068842 58358
NAYIF-1 (EO-88)         
1 42017U 17008BX  18064.89904647  .00001346  00000-0  58383-4 0  9991
2 42017  97.4605 130.5288 0007232  36.0832 324.0892 15.24089375 58331
HAVELSAT                
1 42700U 98067LH  18064.86976070  .00019682  00000-0  19455-3 0  9998
2 42700  51.6367 161.0272 0003676 230.0919 129.9754 15.65880031 45809
COLUMBIA                
1 42702U 98067LK  18065.21102952  .03283709  11969-4  12679-2 0  9996
2 42702  51.6157 138.1871 0007607   2.2763 357.8289 16.23202903 46056
SGSAT                   
1 42703U 98067LL  18064.71131188  .00090731  00000-0  46424-3 0  9998
2 42703  51.6337 151.5870 0002286   2.3520 357.7492 15.80556666 45824
CXBN-2                  
1 42704U 98067LM  18064.67367070  .00020159  00000-0  20235-3 0  9994
2 42704  51.6376 162.7269 0001041 129.3204 230.7884 15.65478781 45684
ICECUBE                 
1 42705U 98067LN  18064.72141174  .00036246  00000-0  30554-3 0  9995
2 42705  51.6412 159.3434 0001066 120.1679 239.9424 15.69448118 45792
PHOENIX                 
1 42706U 98067LP  18064.86363733  .00016109  00000-0  16624-3 0  9996
2 42706  51.6367 161.7393 0000415 139.8065 220.2961 15.64958153 45706
X-CUBESAT               
1 42707U 98067LQ  18064.74722524  .00021755  00000-0  21304-3 0  9995
2 42707  51.6343 161.6769 0000161 124.9629 235.1382 15.66044638 45681
QBEE50-LTU-OC           
1 42708U 98067LR  18064.71413413  .00018605  00000-0  18638-3 0  9993
2 42708  51.6368 162.2246 0000308 148.1352 211.9662 15.65589070 45631
ALTAIR PATHFINDER       
1 42711U 98067LS  18064.87176355  .00011168  00000-0  13320-3 0  9995
2 42711  51.6370 165.5399 0003508 146.6233 213.4983 15.61606313 45313
SHARC                   
1 42712U 98067LT  18064.88543748  .00010463  00000-0  13036-3 0  9992
2 42712  51.6388 166.4162 0001959 149.9088 210.2018 15.60537236 45548
ZA-AEROSAT              
1 42713U 98067LU  18064.87643357  .00015640  00000-0  16871-3 0  9991
2 42713  51.6360 163.3169 0001655 128.3383 231.7761 15.63855067 45343
LINK                    
1 42714U 98067LV  18064.81152174  .00034488  00000-0  28945-3 0  9994
2 42714  51.6326 159.0770 0000837  95.8021 264.3071 15.69578795 45504
CSUNSAT 1               
1 42715U 98067LW  18064.73224871  .00017185  00000-0  18266-3 0  9990
2 42715  51.6373 163.8637 0003242 135.5814 224.5441 15.64148829 45322
SPACECUBE               
1 42717U 98067LY  18064.86456732  .00019459  00000-0  19525-3 0  9994
2 42717  51.6356 161.7308 0002390 235.9342 124.1427 15.65513134 44730
HOOPOE                  
1 42718U 98067LZ  18064.70497037  .00022140  00000-0  21010-3 0  9994
2 42718  51.6365 161.4179 0002158 238.2957 121.7828 15.66819192 44725
CHALLENGER              
1 42721U 98067MA  18064.79072587  .00038588  00000-0  29304-3 0  9993
2 42721  51.6340 157.4368 0003087 223.1387 136.9370 15.71921250 44487
NJUST-1                 
1 42722U 98067MB  18065.13878224  .00015326  00000-0  16973-3 0  9998
2 42722  51.6370 162.8263 0005143 205.7669 154.3070 15.63189109 44446
UNSW-ECO                
1 42723U 98067MC  18064.86263688  .00024690  00000-0  23151-3 0  9990
2 42723  51.6377 160.9860 0004027 209.2517 150.8254 15.67040218 44421
LILACSAT-1              
1 42725U 98067ME  18065.17988359  .00017687  00000-0  18472-3 0  9994
2 42725  51.6368 161.6006 0003985 210.6953 149.3809 15.64570754 44367
NSIGHT-1                
1 42726U 98067MF  18064.90381177  .00007507  00000-0  98121-4 0  9990
2 42726  51.6389 167.2833 0005140 205.6717 154.4022 15.59760065 44272
SNUSAT-1                
1 42727U 98067MG  18065.12141964  .00018415  00000-0  19257-3 0  9996
2 42727  51.6352 161.9270 0005604 165.3832 194.7326 15.64498831 44329
I-INSPIRE II            
1 42731U 98067ML  18064.69865465  .00028426  00000-0  26058-3 0  9991
2 42731  51.6357 161.3481 0004297 146.4237 213.7032 15.67514873 44181
POLYITAN-2-SAU          
1 42732U 98067MM  18064.86867486  .00021464  00000-0  21151-3 0  9990
2 42732  51.6361 161.7480 0004810 146.7396 213.3902 15.65889518 44192
SNUSAT-1B               
1 42733U 98067MN  18064.68506532  .00018654  00000-0  19130-3 0  9994
2 42733  51.6366 163.5288 0005079 150.3790 209.7493 15.64987178 44151
EXALTA-1                
1 42734U 98067MP  18064.83076290  .00025932  00000-0  23759-3 0  9994
2 42734  51.6344 160.7249 0005092 179.9394 180.1604 15.67578783 44153
BEEAGLESAT              
1 42736U 98067MR  18064.80628641  .00017822  00000-0  18835-3 0  9994
2 42736  51.6359 163.5874 0005296 200.9693 159.1085 15.64257612 44228
ATLANTIS                
1 42737U 98067MS  18064.64723947  .00213452  27910-4  67140-3 0  9995
2 42737  51.6241 148.0364 0004475 349.4925  10.5987 15.90954526 44303
UCLSAT                  
1 42765U 17036A   18065.10112571  .00001137  00000-0  53418-4 0  9996
2 42765  97.4144 126.5570 0013567  80.0513 280.2254 15.21557770 39038
LITUANICASAT-2          
1 42768U 17036D   18064.72547980  .00001809  00000-0  84628-4 0  9995
2 42768  97.4156 125.8556 0017465  71.5895 288.7238 15.20908136 38836
AALTO-1                 
1 42775U 17036L   18064.72185112  .00000739  00000-0  36839-4 0  9990
2 42775  97.4142 125.8434 0015845  69.5185 290.7749 15.20547824 38779
URSA MAIOR              
1 42776U 17036M   18064.84489104  .00000776  00000-0  38423-4 0  9994
2 42776  97.4146 125.9959 0015696  69.4517 290.8401 15.20614265 38791
COMPASS 2               
1 42777U 17036N   18065.15587309  .00001443  00000-0  67347-4 0  9995
2 42777  97.4163 126.5349 0014670  72.3308 287.9528 15.21355484 38842
DIAMOND RED             
1 42783U 17036U   18064.74616581  .00000913  00000-0  43924-4 0  9997
2 42783  97.4146 126.1194 0014175  80.9416 279.3423 15.21224741 38782
PEGASUS                 
1 42784U 17036V   18064.79732221  .00001034  00000-0  49111-4 0  9992
2 42784  97.4147 126.2081 0014109  80.8968 279.3864 15.21384378 38791
DIAMOND GREEN           
1 42785U 17036W   18064.74527479  .00000920  00000-0  44225-4 0  9999
2 42785  97.4149 126.1283 0014073  81.4555 278.8275 15.21228160 38859
DIAMOND BLUE            
1 42786U 17036X   18064.87593062  .00000925  00000-0  44475-4 0  9997
2 42786  97.4148 126.2576 0013909  81.3443 278.9368 15.21224495 38870
NUDTSAT                 
1 42787U 17036Y   18064.75059685  .00001518  00000-0  69719-4 0  9990
2 42787  97.4153 126.2747 0013684  81.3048 278.9738 15.21837747 38633
SUCHAI                  
1 42788U 17036Z   18065.16580035  .00001206  00000-0  56409-4 0  9991
2 42788  97.4148 126.6298 0013710  79.8400 280.4382 15.21606748 38927
SKCUBE                  
1 42789U 17036AA  18064.90034784  .00001130  00000-0  53062-4 0  9996
2 42789  97.4147 126.3698 0013559  80.7433 279.5335 15.21590223 38800
VZLUSAT-1               
1 42790U 17036AB  18064.80736745  .00001494  00000-0  68635-4 0  9998
2 42790  97.4148 126.3389 0013241  81.5171 278.7566 15.21867196 38797
ROBUSTA-1B              
1 42792U 17036AD  18065.14147360  .00001161  00000-0  54251-4 0  9997
2 42792  97.4144 126.6500 0013133  81.0136 279.2586 15.21728628 38850
CICERO 6                
1 42793U 17036AE  18064.73370836  .00000713  00000-0  34545-4 0  9994
2 42793  97.4140 126.2702 0012296  83.1957 277.0677 15.21668069 38860
D-SAT                   
1 42794U 17036AF  18065.15133707  .00000186  00000-0  22076-4 0  9996
2 42794  97.6061 123.6286 0125688 264.9741  93.7121 14.90791981 38371
TOKI                    
1 42820U 98067MU  18064.69125380  .00016925  00000-0  18523-3 0  9994
2 42820  51.6364 165.8226 0002371 120.1045 240.0185 15.63414905 37669
